IRIDIUM 155             
1 43573U 18061E   24018.14400635  .00000445  00000+0  15198-3 0  9995
2 43573  86.3936  64.8963 0002253  88.0067 272.1387 14.34220187287083
IRIDIUM 154             
1 43574U 18061F   24017.63660067  .00000083  00000+0  22706-4 0  9998
2 43574  86.3942  65.1987 0002392  98.0740 262.0727 14.34218207287057
IRIDIUM 163             
1 43575U 18061G   24018.17571683  .00000244  00000+0  80166-4 0  9997
2 43575  86.3937  64.9164 0002251  94.1229 266.0224 14.34217740287102
IRIDIUM 156             
1 43576U 18061H   24018.15034659  .00000452  00000+0  15423-3 0  9997
2 43576  86.3937  64.9331 0001903  93.1183 267.0230 14.34221351287088
IRIDIUM 164             
1 43577U 18061J   24017.64294023  .00000297  00000+0  98874-4 0  9993
2 43577  86.3939  65.1719 0002005  99.3056 260.8367 14.34220321287061
IRIDIUM 159             
1 43578U 18061K   24018.16937898  .00000200  00000+0  64487-4 0  9993
2 43578  86.3938  64.9074 0002305  95.3706 264.7753 14.34216921287101
IRIDIUM 180             
1 43922U 19002A   24017.95956164  .00000589  00000+0  20336-3 0  9999
2 43922  86.3979   1.8719 0002250  92.3296 267.8158 14.34223170262688
IRIDIUM 176             
1 43923U 19002B   24017.95771406  .00002128  00000+0  33331-3 0  9994
2 43923  86.6113   1.9023 0002583  89.5666 270.5847 14.72278707269590
IRIDIUM 168             
1 43924U 19002C   24018.02299052  .00000412  00000+0  14000-3 0  9992
2 43924  86.3981   1.8978 0002241  90.7491 269.3962 14.34222667262678
IRIDIUM 173             
1 43925U 19002D   24017.94053982  .00000332  00000+0  11142-3 0  9998
2 43925  86.3978   1.8576 0002289  85.2687 274.8770 14.34220621262640
IRIDIUM 169             
1 43926U 19002E   24018.11971001  .00000489  00000+0  15336-3 0  9992
2 43926  86.4209  33.3863 0003709  44.5494 315.6002 14.38611432263551
IRIDIUM 172             
1 43927U 19002F   24017.93419348  .00000585  00000+0  20188-3 0  9991
2 43927  86.3986   1.8659 0002510  94.9607 265.1875 14.34217752262650
IRIDIUM 175             
1 43928U 19002G   24017.95164260  .00002263  00000+0  35464-3 0  9992
2 43928  86.1532 343.6056 0002462  87.0584 273.0915 14.72283447269585
IRIDIUM 171             
1 43929U 19002H   24017.91517059  .00000258  00000+0  85225-4 0  9990
2 43929  86.3985   2.0816 0002193  94.1521 265.9926 14.34219062262643
IRIDIUM 170             
1 43930U 19002J   24018.09974667  .00002045  00000+0  32013-3 0  9996
2 43930  86.6114   1.8479 0002419  89.2733 270.8762 14.72280351269624
IRIDIUM 167             
1 43931U 19002K   24017.90882761  .00000071  00000+0  18236-4 0  9998
2 43931  86.3979   1.8903 0002123  90.3380 269.8059 14.34216626262640
IRIDIUM 181             
1 56726U 23068S   24018.13563155  .00000649  00000+0  18591-3 0  9994
2 56726  86.8605  48.1875 0001548  96.9466 263.1912 14.43586912 35344
IRIDIUM 177             
1 56727U 23068T   24017.52716318  .00001113  00000+0  14297-3 0  9994
2 56727  86.1965  27.3486 0002403  95.2251 264.9244 14.80247880 35941
IRIDIUM 174             
1 56728U 23068U   24017.52173726  .00001117  00000+0  14352-3 0  9991
2 56728  86.1971  27.4424 0002491  92.4463 267.7043 14.80228868 35946
IRIDIUM 178             
1 56729U 23068V   24017.78670796  .00002183  00000+0  28357-3 0  9993
2 56729  86.5768  37.6018 0002432  96.8454 263.3044 14.80263682 35980
IRIDIUM 179             
1 56730U 23068W   24018.11932139  .00002361  00000+0  30707-3 0  9995
2 56730  86.6775  39.6904 0002516  96.9730 263.1778 14.80266482 36038
